ONEWEB-0228             
1 48780U 21045P   23238.66874530 -.00000046  00000+0 -15736-3 0  9992
2 48780  87.8966 103.3979 0001762  87.7307 272.4025 13.15546636110625
